{
  "name": "SATGUS",
  "line1": "1 62713U 25009DJ  26192.72373817  .00003981  00000+0  31242-3 0  9998",
  "line2": "2 62713  97.6866 273.8575 0005791  55.1871 304.9898 15.01493800 81246",
  "fetched_at": "2026-07-12T02:28:59.324603+00:00"
}